              TDR Cartesian                         TDR Cartesian  
    -----------------------------------       --------------------------------
     X    =      -22185480.16                 X    =        -6762134.35
     Y    =        1392506.90  feet           Y    =          424436.10  meter
     Z    =        1061108.33                 Z    =          323425.82
     XDOT =      -1843.633468                 XDOT =        -561.939481
     YDOT =     -13914.650308  feet/sec       YDOT =       -4241.185414  meter/sec
     ZDOT =     -19696.684094                 ZDOT =       -6003.549312
  
  
    The mean element set is posted at the UTC for which position is
    just north of the next ascending node relative to the above
    vector time
 
 
    TWO LINE MEAN ELEMENT SET
  
    ISS
    1 25544U 98067A   16104.53281347  .00016717  00000-0  10270-3 0  9079
    2 25544  51.6433  20.5163 0002608  53.5499 306.5894 15.54475994 34928
  
  
    Satellite: ISS
    Catalog Number: 25544
    Epoch time:      16104.53281347   =   yrday.fracday
    Element set:     907
    Inclination:       51.6433  deg
    RA of node:        20.5163  deg
    Eccentricity:     .0002608     
    Arg of perigee:    53.5499  deg
    Mean anomaly:     306.5894  deg
    Mean motion:   15.54475994  rev/day
    Decay rate:    1.67170E-04  rev/day^2
    Epoch rev:            3492
    Checksum:              321
 
 
    Coasting Arc #9 (Orbit 3491)
    ---------------------------------------
 
    Vector Time (GMT): 2016/104/12:24:44.014
    Vector Time (MET): N/A
    Weight (LBS)     : 943981.9
 
              M50 Cartesian                         M50 Keplerian  
    -----------------------------------       --------------------------------
     X    =        1672281.38                 A    =         6777286.28  meter
     Y    =       -3859803.29  meter          E    =           .0015545
     Z    =       -5327209.73                 I    =           51.75388
     XDOT =       7129.721546                 Wp   =           86.23664
     YDOT =       2783.900258  meter/sec      RA   =           20.01525  deg
     ZDOT =        222.607560                 TA   =          185.87563
                                              MA   =          185.89389
                                              Ha   =            221.262  n.mi
                                              Hp   =            214.396
 
              M50 Cartesian                         J2K Cartesian  
    -----------------------------------       --------------------------------
     X    =        5486487.48                 X    =         1741195.78
     Y    =      -12663396.61  feet           Y    =        -3840717.67  meter
     Z    =      -17477722.20                 Z    =        -5318918.59
     XDOT =      23391.474887                 XDOT =        7096.980046
     YDOT =       9133.531030  feet/sec       YDOT =        2863.446488  meter/sec
     ZDOT =        730.339764                 ZDOT =         257.162444
 
              TDR Cartesian                         TDR Cartesian  
    -----------------------------------       --------------------------------
     X    =        -871360.72                 X    =         -265590.75
     Y    =      -13819866.87  feet           Y    =        -4212295.42  meter
     Z    =      -17440927.22                 Z    =        -5315994.62
     XDOT =      23955.607231                 XDOT =        7301.669084
     YDOT =      -2614.489071  feet/sec       YDOT =        -796.896269  meter/sec
     ZDOT =        879.946511                 ZDOT =         268.207696
  
  
    The mean element set is posted at the UTC for which position is
    just north of the next ascending node relative to the above
    vector time
 
 
    TWO LINE MEAN ELEMENT SET
  
    ISS
    1 25544U 98067A   16104.53281389  .00016717  00000-0  10270-3 0  9086
    2 25544  51.6436  20.5161 0001595  25.5858 334.5373 15.54160887 34926
  
  
    Satellite: ISS
    Catalog Number: 25544
    Epoch time:      16104.53281389   =   yrday.fracday
    Element set:     908
    Inclination:       51.6436  deg
    RA of node:        20.5161  deg
    Eccentricity:     .0001595     
    Arg of perigee:    25.5858  deg
    Mean anomaly:     334.5373  deg
    Mean motion:   15.54160887  rev/day
    Decay rate:    1.67170E-04  rev/day^2
    Epoch rev:            3492
    Checksum:              316
 
 
    Coasting Arc #10 (Orbit 3507)
    ---------------------------------------
 
    Vector Time (GMT): 2016/105/12:24:44.014
    Vector Time (MET): N/A
    Weight (LBS)     : 943981.9
 
              M50 Cartesian                         M50 Keplerian  
    -----------------------------------       --------------------------------
     X    =       -3347198.64                 A    =         6778720.09  meter
     Y    =        3162384.67  meter          E    =           .0007660
     Z    =        4971105.12                 I    =           51.72828
     XDOT =      -6487.143803                 Wp   =           50.40189
     YDOT =      -3489.965681  meter/sec      RA   =           15.02402  deg
     ZDOT =      -2140.875145                 TA   =           60.45923
                                              MA   =           60.38288
                                              Ha   =            221.264  n.mi
                                              Hp   =            214.335
 
              M50 Cartesian                         J2K Cartesian  
    -----------------------------------       --------------------------------
     X    =      -10981622.84                 X    =        -3406459.99
     Y    =       10375277.78  feet           Y    =         3124623.02  meter
     Z    =       16309400.01                 Z    =         4954701.11
     XDOT =     -21283.280194                 XDOT =       -6437.236527
     YDOT =     -11450.018638  feet/sec       YDOT =       -3562.230319  meter/sec
     ZDOT =      -7023.868586                 ZDOT =       -2172.266700
 
              TDR Cartesian                         TDR Cartesian  
    -----------------------------------       --------------------------------
     X    =       -4806026.39                 X    =        -1464876.84
     Y    =       14404339.08  feet           Y    =         4390442.55  meter
     Z    =       16237490.08                 Z    =         4949186.98
     XDOT =     -23077.484683                 XDOT =       -7034.017331
     YDOT =        396.783401  feet/sec       YDOT =         120.939581  meter/sec
     ZDOT =      -7159.582724                 ZDOT =       -2182.240814
  
  
    The mean element set is posted at the UTC for which position is
    just north of the next ascending node relative to the above
    vector time
 
 
    TWO LINE MEAN ELEMENT SET
  
    ISS
    1 25544U 98067A   16105.56162645  .00016717  00000-0  10270-3 0  9094
    2 25544  51.6433  15.3882 0001534  22.2445 337.8774 15.54199409 35085
  
  
    Satellite: ISS
    Catalog Number: 25544
    Epoch time:      16105.56162645   =   yrday.fracday
    Element set:     909
    Inclination:       51.6433  deg
    RA of node:        15.3882  deg
    Eccentricity:     .0001534     
    Arg of perigee:    22.2445  deg
    Mean anomaly:     337.8774  deg
    Mean motion:   15.54199409  rev/day
    Decay rate:    1.67170E-04  rev/day^2
    Epoch rev:            3508
    Checksum:              313
 
 
    Coasting Arc #11 (Orbit 3522)
    ---------------------------------------
 
    Vector Time (GMT): 2016/106/12:24:44.014
    Vector Time (MET): N/A
    Weight (LBS)     : 943981.9
 
              M50 Cartesian                         M50 Keplerian  
    -----------------------------------       --------------------------------
     X    =        4814059.31                 A    =         6782090.61  meter
     Y    =       -2444484.83  meter          E    =           .0007645
     Z    =       -4111594.39                 I    =           51.70946
     XDOT =       5295.170663                 Wp   =           96.68575
     YDOT =       4003.668850  meter/sec      RA   =           10.03637  deg
     ZDOT =       3824.768860                 TA   =          212.78877
                                              MA   =          212.83624
                                              Ha   =            221.231  n.mi
                                              Hp   =            214.406
 
              M50 Cartesian                         J2K Cartesian  
    -----------------------------------       --------------------------------
     X    =       15794157.85                 X    =         4861008.74
     Y    =       -8019963.36  feet           Y    =        -2390388.61  meter
     Z    =      -13489482.91                 Z    =        -4088094.65
     XDOT =      17372.607162                 XDOT =        5231.427986
     YDOT =      13135.396490  feet/sec       YDOT =        4062.526846  meter/sec
     ZDOT =      12548.454265                 ZDOT =        3850.336388
 
              TDR Cartesian                         TDR Cartesian  
    -----------------------------------       --------------------------------
     X    =        9890615.69                 X    =         3014659.66
     Y    =      -14788791.86  feet           Y    =        -4507623.76  meter
     Z    =      -13386886.88                 Z    =        -4080323.12
     XDOT =      20436.411925                 XDOT =        6229.018355
     YDOT =       2224.607757  feet/sec       YDOT =         678.060444  meter/sec
     ZDOT =      12658.752936                 ZDOT =        3858.387895
  
  
    The mean element set is posted at the UTC for which position is
    just north of the next ascending node relative to the above
    vector time
 
 
    TWO LINE MEAN ELEMENT SET
  
    ISS
    1 25544U 98067A   16106.52612755  .00016717  00000-0  10270-3 0  9105
    2 25544  51.6446  10.5796 0001536  25.6270 334.4958 15.54192349 35235
  
